     2.100          NAVIGATION                              RINEX VERSION / TYPE
fic2rin                                 04/18/2014 00:14:30 PGM / RUN BY / DATE
                                                            END OF HEADER
25 14  4 17  7 59 44.0  .219577923417D-04  .909494701773D-12  .000000000000D+00
     .800000000000D+01 -.114687500000D+03  .377158567311D-08  .201009275353D+01
    -.588595867157D-05  .348455854692D-02  .108964741230D-04  .515363544846D+04
     .374384000000D+06 -.502914190292D-07 -.304706470094D+01 -.298023223877D-07
     .976292937697D+00  .175812500000D+03  .643594520844D+00 -.774389399284D-08
    -.250010413937D-11  .100000000000D+01  .178800000000D+04  .000000000000D+00
     .240000000000D+01  .000000000000D+00  .512227416039D-08  .800000000000D+01
     .371976000000D+06  .400000000000D+01
10 14  4 17  7 59 44.0 -.121962279081D-03 -.136424205266D-11  .000000000000D+00
     .350000000000D+02  .215625000000D+02  .489306095849D-08  .764048326708D+00
     .141933560371D-05  .135078766616D-01  .118725001812D-04  .515372867012D+04
     .374384000000D+06 -.670552253723D-07  .111362571681D+00  .122934579849D-06
     .942709438329D+00  .142812500000D+03  .861104473898D+00 -.827355891265D-08
    -.616454249222D-09  .100000000000D+01  .178800000000D+04  .000000000000D+00
     .240000000000D+01  .000000000000D+00 -.279396772385D-08  .350000000000D+02
     .372606000000D+06  .400000000000D+01
27 14  4 17  7 59 44.0 -.195191241801D-04  .909494701773D-12  .000000000000D+00
     .600000000000D+01  .255000000000D+02  .459376277723D-08 -.173462481546D+00
     .138580799103D-05  .109757122118D-02  .863708555698D-05  .515367154503D+04
     .374384000000D+06  .186264514923D-08 -.199981107122D+01 -.558793544769D-07
     .962784144418D+00  .214812500000D+03  .578814027185D-01 -.802890586473D-08
     .644312552490D-09  .100000000000D+01  .178800000000D+04  .000000000000D+00
     .240000000000D+01  .000000000000D+00  .186264514923D-08  .600000000000D+01
     .373476000000D+06  .400000000000D+01
 2 14  4 17  7 59 44.0  .490184873343D-03  .216004991671D-11  .000000000000D+00
     .000000000000D+00 -.287500000000D+02  .561737684344D-08 -.183948782205D+01
    -.145286321640D-05  .134565554326D-01  .455044209957D-05  .515357980347D+04
     .374384000000D+06  .171363353729D-06 -.973398276322D+00 -.577419996262D-07
     .939088705843D+00  .276718750000D+03 -.244209339129D+01 -.847249577060D-08
    -.592881838766D-10  .100000000000D+01  .178800000000D+04  .000000000000D+00
     .240000000000D+01  .000000000000D+00 -.204890966415D-07  .000000000000D+00
     .374256000000D+06  .400000000000D+01
 2 14  4 17  9 59 44.0  .490200240165D-03  .216004991671D-11  .000000000000D+00
     .100000000000D+01 -.220625000000D+02  .571416658940D-08 -.789309481154D+00
    -.882893800735D-06  .134564118925D-01  .469200313091D-05  .515357802773D+04
     .381584000000D+06  .165775418282D-06 -.973459110308D+00  .216066837311D-06
     .939087117114D+00  .276031250000D+03 -.244202507009D+01 -.869536219674D-08
    -.161792453591D-09  .100000000000D+01  .178800000000D+04  .000000000000D+00
     .240000000000D+01  .000000000000D+00 -.204890966415D-07  .100000000000D+01
     .374406000000D+06  .400000000000D+01
 4 14  4 17  9 59 44.0  .669527798891D-05  .227373675443D-12  .000000000000D+00
     .110000000000D+02 -.284687500000D+02  .557773233494D-08  .259529474271D+01
    -.159442424774D-05  .105641692644D-01  .466965138912D-05  .515371278763D+04
     .381584000000D+06  .186264514923D-08 -.957396167393D+00 -.169500708580D-06
     .938117189261D+00  .277843750000D+03  .108971173436D+01 -.838463496799D-08
    -.231438211759D-09  .100000000000D+01  .178800000000D+04  .000000000000D+00
     .240000000000D+01  .000000000000D+00 -.651925802231D-08  .110000000000D+02
     .374406000000D+06  .400000000000D+01
 5 14  4 17  9 59 44.0 -.378397759050D-03  .216004991671D-11  .000000000000D+00
     .800000000000D+01  .184062500000D+02  .478769942690D-08  .153472632020D+01
     .117346644402D-05  .357586611062D-02  .118017196655D-04  .515357806778D+04
     .381584000000D+06  .689178705215D-07  .938164053841D-01  .113621354103D-06
     .947903262719D+00  .146156250000D+03  .325223256568D+00 -.804819238237D-08
    -.487163149443D-09  .100000000000D+01  .178800000000D+04  .000000000000D+00
     .240000000000D+01  .000000000000D+00 -.102445483208D-07  .800000000000D+01
     .374406000000D+06  .400000000000D+01
10 14  4 17  9 59 44.0 -.121972057968D-03 -.136424205266D-11  .000000000000D+00
     .360000000000D+02  .131250000000D+02  .483377277461D-08  .181411160471D+01
     .607222318649D-06  .135080668842D-01  .120326876640D-04  .515373088837D+04
     .381584000000D+06 -.333413481712D-06  .111302284827D+00 -.726431608200D-07
     .942706250631D+00  .141531250000D+03  .861191281994D+00 -.806605026908D-08
    -.421446126351D-09  .100000000000D+01  .178800000000D+04  .000000000000D+00
     .240000000000D+01  .000000000000D+00 -.279396772385D-08  .360000000000D+02
     .374406000000D+06  .400000000000D+01
25 14  4 17  9 59 44.0  .219643115997D-04  .909494701773D-12  .000000000000D+00
     .160000000000D+02 -.118125000000D+03  .373765568836D-08  .306050664033D+01
    -.600703060627D-05  .348593993112D-02  .115707516670D-04  .515363252640D+04
     .381584000000D+06  .521540641785D-07 -.304712008995D+01  .298023223877D-07
     .976293303426D+00  .164687500000D+03  .643380027795D+00 -.764924719328D-08
    -.171435712414D-10  .100000000000D+01  .178800000000D+04  .000000000000D+00
     .240000000000D+01  .000000000000D+00  .512227416039D-08  .160000000000D+02
     .374406000000D+06  .400000000000D+01
27 14  4 17  9 59 44.0 -.195126049221D-04  .909494701773D-12  .000000000000D+00
     .700000000000D+01  .213750000000D+02  .457197615544D-08  .876968435084D+00
     .109709799290D-05  .109686446376D-02  .887736678123D-05  .515367012215D+04
     .381584000000D+06  .428408384323D-07 -.199986865021D+01 -.316649675369D-07
     .962788912068D+00  .211156250000D+03  .576335375825D-01 -.799319009131D-08
     .639312344211D-09  .100000000000D+01  .178800000000D+04  .000000000000D+00
     .240000000000D+01  .000000000000D+00  .186264514923D-08  .700000000000D+01
     .374406000000D+06  .400000000000D+01
 1 14  4 17 10  0  0.0  .890810042620D-05  .147792889038D-11  .000000000000D+00
     .910000000000D+02 -.226875000000D+02  .510342686393D-08 -.140144857884D+01
    -.126473605633D-05  .291305233259D-02  .505149364471D-05  .515367115784D+04
     .381600000000D+06  .502914190292D-07 -.944739627763D+00 -.372529029846D-08
     .960568803683D+00  .281375000000D+03  .318028037361D+00 -.833034699239D-08
    -.125719522437D-09  .100000000000D+01  .178800000000D+04  .000000000000D+00
     .240000000000D+01  .000000000000D+00  .651925802231D-08  .910000000000D+02
     .374406000000D+06  .400000000000D+01
 3 14  4 17 10  0  0.0  .352892093360D-03  .500222085975D-11  .000000000000D+00
     .810000000000D+02  .197500000000D+02  .509235497417D-08 -.620954628864D+00
     .118464231491D-05  .168476523831D-01  .993162393570D-05  .515378289795D+04
     .381600000000D+06 -.150874257088D-06 -.214805754544D+01  .156462192535D-06
     .937797404146D+00  .182093750000D+03  .137569425130D+01 -.852571227299D-08
     .684314218720D-09  .100000000000D+01  .178800000000D+04  .000000000000D+00
     .240000000000D+01  .000000000000D+00 -.465661287308D-08  .810000000000D+02
     .374406000000D+06  .400000000000D+01
 6 14  4 17 10  0  0.0 -.155176967382D-03 -.204636307899D-11  .000000000000D+00
     .121000000000D+03 -.114750000000D+03  .494199156807D-08  .167273903145D+01
    -.591017305851D-05  .691144738812D-02  .110398977995D-04  .515379196358D+04
     .381600000000D+06 -.838190317154D-07 -.302899709359D+01 -.428408384323D-07
     .981073063482D+00  .178687500000D+03  .846289853609D+00 -.773103631441D-08
    -.796461747257D-10  .100000000000D+01  .178800000000D+04  .000000000000D+00
     .340000000000D+01  .630000000000D+02 -.190921127796D-07  .121000000000D+03
     .374406000000D+06  .400000000000D+01
 7 14  4 17 10  0  0.0  .336253084242D-03  .420641299570D-11  .000000000000D+00
     .400000000000D+01 -.495937500000D+02  .435410993758D-08 -.203261151004D+01
    -.263191759586D-05  .717905780766D-02  .212527811527D-05  .515363700676D+04
     .381600000000D+06 -.558793544769D-08  .221586760053D+01 -.856816768646D-07
     .973512116219D+00  .345562500000D+03 -.284156010611D+01 -.822748556494D-08
    -.150720563831D-09  .100000000000D+01  .178800000000D+04  .000000000000D+00
     .240000000000D+01  .000000000000D+00 -.107102096081D-07  .400000000000D+01
     .374406000000D+06  .400000000000D+01
 8 14  4 17 10  0  0.0  .129579566419D-04  .227373675443D-12  .000000000000D+00
     .430000000000D+02 -.706875000000D+02  .383158817246D-08 -.257815112319D+01
    -.369362533092D-05  .136034766911D-01  .278279185295D-05  .515348075104D+04
     .381600000000D+06 -.707805156708D-07  .231441056842D+01 -.221654772758D-06
     .996780360772D+00  .344875000000D+03 -.278144588371D+01 -.787711382769D-08
    -.225723688012D-09  .100000000000D+01  .178800000000D+04  .000000000000D+00
     .240000000000D+01  .000000000000D+00 -.419095158577D-08  .430000000000D+02
     .374406000000D+06  .400000000000D+01
 9 14  4 17 10  0  0.0  .320793129504D-03  .284217094304D-11  .000000000000D+00
     .650000000000D+02 -.460937500000D+02  .436482466961D-08 -.953344002810D+00
    -.229291617870D-05  .171163731720D-01  .247545540333D-05  .515367956161D+04
     .381600000000D+06 -.221654772758D-06  .219515683376D+01  .670552253723D-07
     .982041996551D+00  .347500000000D+03  .178913593726D+01 -.850392565121D-08
    -.121790787361D-09  .100000000000D+01  .178800000000D+04  .000000000000D+00
     .240000000000D+01  .000000000000D+00 -.605359673500D-08  .650000000000D+02
     .374406000000D+06  .400000000000D+01
